[{"OBJECT_NAME":"MONITOR-2 (RS39S)","OBJECT_ID":"2023-091U","EPOCH":"2026-03-09T22:29:03.497856","MEAN_MOTION":15.17917968,"ECCENTRICITY":0.00130556,"INCLINATION":97.5198,"RA_OF_ASC_NODE":127.8703,"ARG_OF_PERICENTER":98.0854,"MEAN_ANOMALY":262.1862,"EPHEMERIS_TYPE":0,"CLASSIFICATION_TYPE":"U","NORAD_CAT_ID":57184,"ELEMENT_SET_NO":999,"REV_AT_EPOCH":14889,"BSTAR":0.00030772379,"MEAN_MOTION_DOT":6.188e-5,"MEAN_MOTION_DDOT":0},{"OBJECT_NAME":"STARLINK-30351","OBJECT_ID":"2023-131G","EPOCH":"2026-03-09T22:00:01.999584","MEAN_MOTION":15.13769013,"ECCENTRICITY":0.00010896,"INCLINATION":42.9997,"RA_OF_ASC_NODE":170.4064,"ARG_OF_PERICENTER":262.6295,"MEAN_ANOMALY":331.656,"EPHEMERIS_TYPE":0,"CLASSIFICATION_TYPE":"U","NORAD_CAT_ID":57738,"ELEMENT_SET_NO":999,"REV_AT_EPOCH":578,"BSTAR":0.05938113,"MEAN_MOTION_DOT":0.01189701,"MEAN_MOTION_DDOT":0}]
